NORAD_CAT_ID,OBJECT_NAME,OBJECT_TYPE,EPOCH,MEAN_MOTION,ECCENTRICITY,INCLINATION,RA_OF_ASC_NODE,ARG_OF_PERICENTER,MEAN_ANOMALY,BSTAR,MEAN_MOTION_DOT,MEAN_MOTION_DDOT,TLE_LINE0,TLE_LINE1,TLE_LINE2,SEMIMAJOR_AXIS,PERIOD,APOGEE,PERIGEE,DECAYED
53561.0,STARLINK-4563,PAYLOAD,2023-01-20 17:57:22,15.08858603,0.0001669,53.2162,159.4813,82.6589,277.4593,0.00066626,0.00010337,0.0,0 STARLINK-4563,1 53561U 22101AL  23020.74818284  .00010337  00000-0  66626-3 0  9998,2 53561  53.2162 159.4813 0001669  82.6589 277.4593 15.08858603 23615,6917.824,95.436,540.843,538.534,0.0
53561.0,STARLINK-4563,PAYLOAD,2023-01-21 01:54:18,15.08841645,0.0001424,53.2158,157.9961,77.4258,282.6894,8.326799999999999e-05,1.038e-05,0.0,0 STARLINK-4563,1 53561U 22101AL  23021.07938601  .00001038  00000-0  83268-4 0  9991,2 53561  53.2158 157.9961 0001424  77.4258 282.6894 15.08841645 23666,6917.875,95.437,540.725,538.755,0.0
53561.0,STARLINK-4563,PAYLOAD,2023-01-22 08:06:38,15.08858953,0.0001455,53.217,152.3461,82.0703,278.0455,0.00051461,7.916e-05,0.0,0 STARLINK-4563,1 53561U 22101AL  23022.33794063  .00007916  00000-0  51461-3 0  9993,2 53561  53.2170 152.3461 0001455  82.0703 278.0455 15.08858953 23858,6917.821999999999,95.436,540.694,538.681,0.0
53561.0,STARLINK-4563,PAYLOAD,2023-01-22 17:38:57,15.08819733,0.0001481,53.2164,150.5605,86.2499,273.8662,-0.00031527,-5.299e-05,0.0,0 STARLINK-4563,1 53561U 22101AL  23022.73538920 -.00005299  00000-0 -31527-3 0  9990,2 53561  53.2164 150.5605 0001481  86.2499 273.8662 15.08819733 23911,6917.941999999999,95.439,540.832,538.783,0.0
53561.0,STARLINK-4563,PAYLOAD,2023-01-23 07:57:26,15.08835436,0.0001426999999999,53.2167,147.8851,90.2656,269.85,0.0015064,0.00023765,0.0,0 STARLINK-4563,1 53561U 22101AL  23023.33155876  .00023765  00000-0  15064-2 0  9995,2 53561  53.2167 147.8851 0001427  90.2656 269.8500 15.08835436 24001,6917.894,95.438,540.747,538.7719999999999,0.0
53561.0,STARLINK-4563,PAYLOAD,2023-01-23 14:18:58,15.08857512,0.000134,53.2163,146.6956,90.5857,269.5289,0.0019198,0.00030412,0.0,0 STARLINK-4563,1 53561U 22101AL  23023.59651578  .00030412  00000-0  19198-2 0  9992,2 53561  53.2163 146.6956 0001340  90.5857 269.5289 15.08857512 24044,6917.826999999999,95.436,540.619,538.765,0.0
53561.0,STARLINK-4563,PAYLOAD,2023-01-24 01:26:40,15.088602300000002,0.0001147,53.2161,144.6159,82.4897,277.6225,0.0010792999999999,0.0001694,0.0,0 STARLINK-4563,1 53561U 22101AL  23024.06019249  .00016940  00000-0  10793-2 0  9990,2 53561  53.2161 144.6159 0001147  82.4897 277.6225 15.08860230 24113,6917.819,95.436,540.477,538.89,0.0
53561.0,STARLINK-4563,PAYLOAD,2023-01-24 07:48:13,15.08856583,0.0002320999999999,53.216,143.4246,89.0966,271.0292,0.00073236,0.00011392,0.0,0 STARLINK-4563,1 53561U 22101AL  23024.32515544  .00011392  00000-0  73236-3 0  9996,2 53561  53.2160 143.4246 0002321  89.0966 271.0292 15.08856583 24153,6917.83,95.437,541.3,538.089,0.0
53561.0,STARLINK-4563,PAYLOAD,2023-01-24 14:09:45,15.08847356,0.000161,53.2175,142.2375,89.8764,270.2413,0.00019755,2.858e-05,0.0,0 STARLINK-4563,1 53561U 22101AL  23024.59011374  .00002858  00000-0  19755-3 0  9990,2 53561  53.2175 142.2375 0001610  89.8764 270.2413 15.08847356 24191,6917.858,95.437,540.837,538.609,0.0
53561.0,STARLINK-4563,PAYLOAD,2023-01-25 12:25:10,15.08839951,0.000129,53.2166,138.0732,82.5737,277.5401,0.00024224,3.569e-05,0.0,0 STARLINK-4563,1 53561U 22101AL  23025.51747802  .00003569  00000-0  24224-3 0  9992,2 53561  53.2166 138.0732 0001290  82.5737 277.5401 15.08839951 24330,6917.880999999999,95.438,540.638,538.8530000000001,0.0
53561.0,STARLINK-4563,PAYLOAD,2023-01-25 14:00:33,15.08840296,0.00013,53.2166,137.7756,83.9135,276.2005,0.00026092,3.867e-05,0.0,0 STARLINK-4563,1 53561U 22101AL  23025.58371811  .00003867  00000-0  26092-3 0  9998,2 53561  53.2166 137.7756 0001300  83.9135 276.2005 15.08840296 24342,6917.879,95.438,540.644,538.845,0.0
53561.0,STARLINK-4563,PAYLOAD,2023-01-26 13:51:19,15.08857157,0.0001381,53.2165,133.3145,91.9793,268.1357,0.00064229,9.954e-05,0.0,0 STARLINK-4563,1 53561U 22101AL  23026.57731362  .00009954  00000-0  64229-3 0  9996,2 53561  53.2165 133.3145 0001381  91.9793 268.1357 15.08857157 24493,6917.828,95.436,540.648,538.738,0.0
53561.0,STARLINK-4563,PAYLOAD,2023-01-26 23:23:38,15.08847152,0.000169,53.2157,131.5275,70.5336,289.5838,0.00041587,6.338e-05,0.0,0 STARLINK-4563,1 53561U 22101AL  23026.97475615  .00006338  00000-0  41587-3 0  9991,2 53561  53.2157 131.5275 0001690  70.5336 289.5838 15.08847152 24559,6917.859,95.437,540.893,538.554,0.0
53561.0,STARLINK-4563,PAYLOAD,2023-01-27 12:06:43,15.08841479,0.0001582,53.2176,129.1528,107.2125,252.904,5.4868e-05,5.85e-06,0.0,0 STARLINK-4563,1 53561U 22101AL  23027.50467586  .00000585  00000-0  54868-4 0  9994,2 53561  53.2176 129.1528 0001582 107.2125 252.9040 15.08841479 24632,6917.876,95.437,540.835,538.646,0.0
53561.0,STARLINK-4563,PAYLOAD,2023-01-27 13:42:07,15.08841691,0.0001495,53.2175,128.8558,105.4583,254.6574,5.7218e-05,6.23e-06,0.0,0 STARLINK-4563,1 53561U 22101AL  23027.57091577  .00000623  00000-0  57218-4 0  9999,2 53561  53.2175 128.8558 0001495 105.4583 254.6574 15.08841691 24649,6917.875,95.437,540.774,538.706,0.0
53561.0,STARLINK-4563,PAYLOAD,2023-01-28 11:57:31,15.08840908,0.0001414,53.2169,124.6925,106.9887,253.126,2.405e-05,9.5e-07,0.0,0 STARLINK-4563,1 53561U 22101AL  23028.49827607  .00000095  00000-0  24050-4 0  9993,2 53561  53.2169 124.6925 0001414 106.9887 253.1260 15.08840908 24789,6917.878,95.437,540.721,538.764,0.0
53561.0,STARLINK-4563,PAYLOAD,2023-01-28 16:43:40,15.08848244,0.0001429,53.2171,123.7997,107.0939,253.0209,0.00010203,1.337e-05,0.0,0 STARLINK-4563,1 53561U 22101AL  23028.69699231  .00001337  00000-0  10203-3 0  9999,2 53561  53.2171 123.7997 0001429 107.0939 253.0209 15.08848244 24814,6917.855,95.437,540.709,538.732,0.0
53561.0,STARLINK-4563,PAYLOAD,2023-01-29 10:12:55,15.08831312,0.0001351,53.2176,120.5294,99.2419,260.8726,2.0142e-05,3.3e-07,0.0,0 STARLINK-4563,1 53561U 22101AL  23029.42564369  .00000033  00000-0  20142-4 0  9990,2 53561  53.2176 120.5294 0001351  99.2419 260.8726 15.08831312 24923,6917.907,95.438,540.707,538.837,0.0
53561.0,STARLINK-4563,PAYLOAD,2023-01-29 14:59:04,15.08835289,0.0001188,53.2162,119.6363,93.3747,266.7381,5.476e-05,5.84e-06,0.0,0 STARLINK-4563,1 53561U 22101AL  23029.62436241  .00000584  00000-0  54760-4 0  9993,2 53561  53.2162 119.6363 0001188  93.3747 266.7381 15.08835289 24953,6917.895,95.438,540.582,538.938,0.0
53561.0,STARLINK-4563,PAYLOAD,2023-01-30 11:39:05,15.08841072,0.0001139,53.2153,115.7699,94.2504,265.8618,0.00017464,2.493e-05,0.0,0 STARLINK-4563,1 53561U 22101AL  23030.48548263  .00002493  00000-0  17464-3 0  9997,2 53561  53.2153 115.7699 0001139  94.2504 265.8618 15.08841072 25084,6917.877,95.437,540.53,538.954,0.0
53561.0,STARLINK-4563,PAYLOAD,2023-01-30 14:49:51,15.08844926,0.0001116,53.2152,115.1749,89.929,270.183,0.00024401,3.598e-05,0.0,0 STARLINK-4563,1 53561U 22101AL  23030.61796140  .00003598  00000-0  24401-3 0  9997,2 53561  53.2152 115.1749 0001116  89.9290 270.1830 15.08844926 25100,6917.865,95.437,540.502,538.958,0.0
53561.0,STARLINK-4563,PAYLOAD,2023-01-31 11:29:52,15.0884416,0.0001118,53.2151,111.3089,81.6659,278.446,0.00022667,3.322e-05,0.0,0 STARLINK-4563,1 53561U 22101AL  23031.47908373  .00003322  00000-0  22667-3 0  9992,2 53561  53.2151 111.3089 0001118  81.6659 278.4460 15.08844160 25238,6917.868,95.437,540.506,538.959,0.0
53561.0,STARLINK-4563,PAYLOAD,2023-01-31 14:40:38,15.08848074,0.0001108,53.2154,110.7141,82.2157,277.8961,0.00025424,3.762e-05,0.0,0 STARLINK-4563,1 53561U 22101AL  23031.61156167  .00003762  00000-0  25424-3 0  9996,2 53561  53.2154 110.7141 0001108  82.2157 277.8961 15.08848074 25251,6917.856,95.437,540.487,538.954,0.0
53561.0,STARLINK-4563,PAYLOAD,2023-02-01 11:20:39,15.08851857,0.0001206,53.2149,106.8482,95.4828,264.6301,0.00024999,3.694e-05,0.0,0 STARLINK-4563,1 53561U 22101AL  23032.47267764  .00003694  00000-0  24999-3 0  9997,2 53561  53.2149 106.8482 0001206  95.4828 264.6301 15.08851857 25388,6917.844,95.437,540.543,538.875,0.0
53561.0,STARLINK-4563,PAYLOAD,2023-02-02 00:03:44,15.08844707,0.0001397,53.2145,104.4712,75.1651,284.9496,0.00011476,1.539e-05,0.0,0 STARLINK-4563,1 53561U 22101AL  23033.00260047  .00001539  00000-0  11476-3 0  9996,2 53561  53.2145 104.4712 0001397  75.1651 284.9496 15.08844707 25469,6917.866,95.437,540.697,538.765,0.0
53561.0,STARLINK-4563,PAYLOAD,2023-02-02 14:22:12,15.08842051,0.0001309,53.2156,101.7919,107.5321,252.5815,9.5962e-06,-1.35e-06,0.0,0 STARLINK-4563,1 53561U 22101AL  23033.59876104 -.00000135  00000-0  95962-5 0  9993,2 53561  53.2156 101.7919 0001309 107.5321 252.5815 15.08842051 25553,6917.874,95.437,540.645,538.834,0.0
53561.0,STARLINK-4563,PAYLOAD,2023-02-03 04:40:41,15.08842841,0.0001396,53.2153,99.1156,105.9352,254.1794,2.0997e-05,4.6e-07,0.0,0 STARLINK-4563,1 53561U 22101AL  23034.19492059  .00000046  00000-0  20997-4 0  9998,2 53561  53.2153  99.1156 0001396 105.9352 254.1794 15.08842841 25646,6917.872,95.437,540.702,538.771,0.0
53561.0,STARLINK-4563,PAYLOAD,2023-02-03 07:51:28,15.08835943,0.000141,53.2155,98.5205,108.0077,252.1069,-3.6282e-05,-8.65e-06,0.0,0 STARLINK-4563,1 53561U 22101AL  23034.32740779 -.00000865  00000-0 -36282-4 0  9993,2 53561  53.2155  98.5205 0001410 108.0077 252.1069 15.08835943 25661,6917.893,95.438,540.733,538.782,0.0
53561.0,STARLINK-4563,PAYLOAD,2023-02-03 12:37:37,15.08842072,0.0001353,53.2162,97.6289,103.3617,256.7526,-1.7988e-05,-5.74e-06,0.0,0 STARLINK-4563,1 53561U 22101AL  23034.52612373 -.00000574  00000-0 -17988-4 0  9992,2 53561  53.2162  97.6289 0001353 103.3617 256.7526 15.08842072 25697,6917.874,95.437,540.675,538.803,0.0
